OBJECT_NAME,OBJECT_ID,EPOCH,MEAN_MOTION,ECCENTRICITY,INCLINATION,RA_OF_ASC_NODE,ARG_OF_PERICENTER,MEAN_ANOMALY,EPHEMERIS_TYPE,CLASSIFICATION_TYPE,NORAD_CAT_ID,ELEMENT_SET_NO,REV_AT_EPOCH,BSTAR,MEAN_MOTION_DOT,MEAN_MOTION_DDOT
ONEWEB-0157,2021-025P,2026-06-26T16:13:19.137216,13.13471390,.0002215,87.8968,318.3339,103.0478,257.0898,0,U,48055,999,25481,.65652E-3,.253E-5,0
ONEWEB-0162,2021-025Q,2026-06-26T15:38:58.713216,13.13470099,.0001975,87.8967,318.3395,94.2256,265.9099,0,U,48056,999,25478,-.75312E-3,-.262E-5,0
ONEWEB-0155,2021-025R,2026-06-26T15:48:55.224000,13.13470446,.0001313,87.8967,318.3342,105.5308,254.5966,0,U,48057,999,25492,-.55881E-3,-.191E-5,0
ONEWEB-0149,2021-025S,2026-06-26T16:20:37.753728,13.13467965,.0000697,87.8967,318.3335,80.0052,280.1156,0,U,48058,999,25473,.40942E-4,.28E-6,0
ONEWEB-0148,2021-025T,2026-06-26T15:26:58.754112,13.13471002,.0002357,87.8962,318.3471,88.3635,271.7764,0,U,48059,999,25485,-.55381E-3,-.189E-5,0
ONEWEB-0160,2021-025U,2026-06-26T15:51:20.533248,13.13471951,.0001158,87.8963,318.3398,87.8108,272.3154,0,U,48060,999,25480,-.35319E-3,-.116E-5,0
ONEWEB-0163,2021-025V,2026-06-26T10:00:19.069632,13.13469103,.0002165,87.8969,318.3836,102.3343,257.8028,0,U,48061,999,25489,-.71626E-3,-.249E-5,0
ONEWEB-0159,2021-025W,2026-06-26T09:48:08.161056,13.13468634,.0002032,87.8973,318.3787,103.4555,256.6800,0,U,48062,999,25481,-.6203E-3,-.214E-5,0
ONEWEB-0164,2021-025X,2026-06-26T14:50:25.001952,13.13470568,.0001792,87.8973,318.3436,98.6199,261.5133,0,U,48063,999,25482,.1001E-2,.378E-5,0
ONEWEB-0167,2021-025Y,2026-06-26T15:30:38.337120,13.13469229,.000204,87.8961,318.3471,117.0031,243.1306,0,U,48064,999,25481,-.84174E-3,-.295E-5,0
ONEWEB-0166,2021-025Z,2026-06-26T16:03:33.499872,13.13472657,.000194,87.8971,318.3148,97.2467,262.8882,0,U,48065,999,25489,.26792E-3,.111E-5,0
ONEWEB-0151,2021-025AA,2026-06-26T16:05:58.453152,13.13472114,.0001844,87.8963,318.3305,102.1283,258.0053,0,U,48066,999,25483,.30433E-3,.124E-5,0
ONEWEB-0170,2021-025AB,2026-06-26T16:18:09.609696,13.13471899,.0002079,87.8957,318.3307,111.7090,248.4260,0,U,48067,999,25479,-.27765E-2,-.1001E-4,0
ONEWEB-0168,2021-025AC,2026-06-26T15:56:12.791616,13.13464892,.000197,87.8969,318.3341,99.8121,260.3231,0,U,48068,999,25480,.25548E-2,.946E-5,0
ONEWEB-0173,2021-025AD,2026-06-26T10:14:57.223680,13.13471397,.000212,87.8963,318.3825,106.3758,253.7604,0,U,48069,999,25501,-.67642E-3,-.234E-5,0
ONEWEB-0171,2021-025AE,2026-06-26T14:47:58.663680,13.13471278,.0001819,87.8960,318.3526,100.9948,259.1386,0,U,48070,999,25485,.10634E-2,.401E-5,0
ONEWEB-0172,2021-025AF,2026-06-26T17:58:07.185792,13.13469826,.0001931,87.8966,318.3168,103.3781,256.7563,0,U,48071,999,25576,.27618E-3,.114E-5,0
ONEWEB-0174,2021-025AG,2026-06-26T15:41:36.475296,13.13471208,.0002009,87.8965,318.3348,96.0651,264.0707,0,U,48072,999,25507,-.84488E-3,-.296E-5,0
ONEWEB-0175,2021-025AH,2026-06-26T16:25:29.320896,13.13471914,.0001672,87.8970,318.3135,107.9286,252.2025,0,U,48073,999,25473,.84347E-3,.321E-5,0
ONEWEB-0177,2021-025AJ,2026-06-26T14:52:51.302208,13.13469177,.0002114,87.8969,318.3446,98.3228,261.8141,0,U,48074,999,25491,.7826E-3,.299E-5,0
ONEWEB-0178,2021-025AK,2026-06-26T15:19:52.434048,13.13468650,.000191,87.8961,318.3523,106.4466,253.6873,0,U,48075,999,25496,-.53809E-3,-.184E-5,0
ONEWEB-0108,2021-025AL,2026-06-26T18:00:33.412608,13.13471106,.0001817,87.8972,318.3103,91.2419,268.8918,0,U,48076,999,25490,.15011E-3,.68E-6,0
ONEWEB-0169,2021-025AM,2026-06-26T15:07:28.676064,13.13470520,.0001979,87.8963,318.3413,96.8509,263.2845,0,U,48077,999,25354,.32936E-3,.133E-5,0
ONEWEB-0176,2021-031A,2026-06-26T16:38:56.603616,13.14503464,.0001971,87.8971,287.8046,104.1902,255.9447,0,U,48210,999,24956,.14544E-3,.67E-6,0
ONEWEB-0184,2021-031B,2026-06-26T14:10:30.775008,13.14504178,.0001953,87.8974,287.8264,125.0902,235.0411,0,U,48211,999,24952,.36325E-3,.147E-5,0
ONEWEB-0179,2021-031C,2026-06-26T17:04:46.775136,14.25530551,.0219357,87.8994,284.6801,225.8562,132.4413,0,U,48212,999,25040,.82313E-4,.268E-5,0
ONEWEB-0180,2021-031D,2026-06-26T14:15:05.942592,13.14506281,.000231,87.8975,287.8220,107.7884,252.3498,0,U,48213,999,24945,.52987E-3,.209E-5,0
ONEWEB-0218,2021-031E,2026-06-26T16:36:40.247136,13.14503347,.0002209,87.8983,287.8023,123.6638,236.4703,0,U,48214,999,24962,.40506E-3,.163E-5,0
ONEWEB-0209,2021-031F,2026-06-26T16:20:40.648128,13.14503028,.0002224,87.8970,287.8201,101.3229,258.8150,0,U,48215,999,24962,.80832E-3,.312E-5,0
ONEWEB-0198,2021-031G,2026-06-26T17:47:39.531264,13.14503331,.0002292,87.8959,287.8067,110.0264,250.1113,0,U,48216,999,24974,.1131E-3,.55E-6,0
